{"type": "FeatureCollection", "features": [ {"type": "Feature", "properties": {"norad_id": 66911, "name": "1998-067XX", "group": "stations", "lat": -23.180079000605442, "lon": 82.92429946624975, "alt_km": 410.1782755616068, "timestamp": "2025-12-20T16:47:35.053511+00:00", "meta": {"OBJECT_NAME": "1998-067XX", "OBJECT_ID": "1998-067XX", "EPOCH": "2025-12-19T19:18:04.960512", "MEAN_MOTION": 15.52964022, "ECCENTRICITY": 0.00039341, "INCLINATION": 51.6304, "RA_OF_ASC_NODE": 107.215, "ARG_OF_PERICENTER": 254.2011, "MEAN_ANOMALY": 105.8545, "EPHEMERIS_TYPE": 0, "CLASSIFICATION_TYPE": "U", "NORAD_CAT_ID": 66911, "ELEMENT_SET_NO": 999, "REV_AT_EPOCH": 270, "BSTAR": 0.00082358587, "MEAN_MOTION_DOT": 0.00052143, "MEAN_MOTION_DDOT": 0}, "tle": {"line1": "1 66911U 98067XX  25353.80422408  .00052143  00000+0  82359-3 0  9993", "line2": "2 66911  51.6304 107.2150 0003934 254.2011 105.8545 15.52964022  2707"}}, "geometry": {"type": "Point", "coordinates": [82.92429946624975, -23.180079000605442]}}, {"type": "Feature", "properties": {"norad_id": 66912, "name": "1998-067XY", "group": "stations", "lat": -50.89221658569699, "lon": 25.79380190870037, "alt_km": 413.2314168626681, "timestamp": "2025-12-20T16:47:35.053522+00:00", "meta": {"OBJECT_NAME": "1998-067XY", "OBJECT_ID": "1998-067XY", "EPOCH": "2025-12-19T14:52:14.043072", "MEAN_MOTION": 15.51780846, "ECCENTRICITY": 0.0004012, "INCLINATION": 51.6307, "RA_OF_ASC_NODE": 108.231, "ARG_OF_PERICENTER": 260.881, "MEAN_ANOMALY": 99.1725, "EPHEMERIS_TYPE": 0, "CLASSIFICATION_TYPE": "U", "NORAD_CAT_ID": 66912, "ELEMENT_SET_NO": 999, "REV_AT_EPOCH": 267, "BSTAR": 0.00063264, "MEAN_MOTION_DOT": 0.00038197, "MEAN_MOTION_DDOT": 0}, "tle": {"line1": "1 66912U 98067XY  25353.61960698  .00038197  00000+0  63264-3 0  9998", "line2": "2 66912  51.6307 108.2310 0004012 260.8810  99.1725 15.51780846  2678"}}, "geometry": {"type": "Point", "coordinates": [25.79380190870037, -50.89221658569699]}}]}